CCSDS_OMM_VERS = 2.0
CREATION_DATE  = 
ORIGINATOR     = 

OBJECT_NAME    = STARLINK-36698
OBJECT_ID      = 2026-025S
CENTER_NAME    = EARTH
REF_FRAME      = TEME
TIME_SYSTEM    = UTC
MEAN_ELEMENT_THEORY = SGP/SGP4

EPOCH          = 2026-03-02T17:58:36.697440
MEAN_MOTION    = 15.81027112
ECCENTRICITY   = .00026734
INCLINATION    = 97.2860
RA_OF_ASC_NODE = 173.0761
ARG_OF_PERICENTER = 59.0223
MEAN_ANOMALY   = 301.1308

EPHEMERIS_TYPE = 0
CLASSIFICATION_TYPE = U
NORAD_CAT_ID   = 67709
ELEMENT_SET_NO = 999
REV_AT_EPOCH   = 485
BSTAR          = .30793463E-2
MEAN_MOTION_DOT = .641272E-2
MEAN_MOTION_DDOT = 0

CCSDS_OMM_VERS = 2.0
CREATION_DATE  = 
ORIGINATOR     = 

OBJECT_NAME    = STARLINK-36344
OBJECT_ID      = 2026-025T
CENTER_NAME    = EARTH
REF_FRAME      = TEME
TIME_SYSTEM    = UTC
MEAN_ELEMENT_THEORY = SGP/SGP4

EPOCH          = 2026-03-03T04:00:01.999584
MEAN_MOTION    = 15.75136744
ECCENTRICITY   = .0001584
INCLINATION    = 97.2848
RA_OF_ASC_NODE = 173.4994
ARG_OF_PERICENTER = 76.2250
MEAN_ANOMALY   = 88.4903

EPHEMERIS_TYPE = 0
CLASSIFICATION_TYPE = U
NORAD_CAT_ID   = 67710
ELEMENT_SET_NO = 999
REV_AT_EPOCH   = 496
BSTAR          = .74064E-3
MEAN_MOTION_DOT = .111539E-2
MEAN_MOTION_DDOT = 0

CCSDS_OMM_VERS = 2.0
CREATION_DATE  = 
ORIGINATOR     = 

OBJECT_NAME    = STARLINK-36687
OBJECT_ID      = 2026-025U
CENTER_NAME    = EARTH
REF_FRAME      = TEME
TIME_SYSTEM    = UTC
MEAN_ELEMENT_THEORY = SGP/SGP4

EPOCH          = 2026-03-02T18:01:56.125056
MEAN_MOTION    = 15.81015233
ECCENTRICITY   = .00028532
INCLINATION    = 97.2859
RA_OF_ASC_NODE = 173.0728
ARG_OF_PERICENTER = 51.8254
MEAN_ANOMALY   = 308.3271

EPHEMERIS_TYPE = 0
CLASSIFICATION_TYPE = U
NORAD_CAT_ID   = 67711
ELEMENT_SET_NO = 999
REV_AT_EPOCH   = 486
BSTAR          = .29425998E-2
MEAN_MOTION_DOT = .610245E-2
MEAN_MOTION_DDOT = 0

CCSDS_OMM_VERS = 2.0
CREATION_DATE  = 
ORIGINATOR     = 

OBJECT_NAME    = STARLINK-36705
OBJECT_ID      = 2026-025V
CENTER_NAME    = EARTH
REF_FRAME      = TEME
TIME_SYSTEM    = UTC
MEAN_ELEMENT_THEORY = SGP/SGP4

EPOCH          = 2026-03-02T19:52:30.246240
MEAN_MOTION    = 15.75243086
ECCENTRICITY   = .0001432
INCLINATION    = 97.2865
RA_OF_ASC_NODE = 173.1191
ARG_OF_PERICENTER = 96.8618
MEAN_ANOMALY   = 263.2810

EPHEMERIS_TYPE = 0
CLASSIFICATION_TYPE = U
NORAD_CAT_ID   = 67712
ELEMENT_SET_NO = 999
REV_AT_EPOCH   = 486
BSTAR          = .11391E-2
MEAN_MOTION_DOT = .173677E-2
MEAN_MOTION_DDOT = 0

CCSDS_OMM_VERS = 2.0
CREATION_DATE  = 
ORIGINATOR     = 

OBJECT_NAME    = STARLINK-36708
OBJECT_ID      = 2026-025W
CENTER_NAME    = EARTH
REF_FRAME      = TEME
TIME_SYSTEM    = UTC
MEAN_ELEMENT_THEORY = SGP/SGP4

EPOCH          = 2026-03-02T20:48:38.250432
MEAN_MOTION    = 15.80794058
ECCENTRICITY   = .0001029
INCLINATION    = 97.2873
RA_OF_ASC_NODE = 173.2198
ARG_OF_PERICENTER = 134.9353
MEAN_ANOMALY   = 225.1999

EPHEMERIS_TYPE = 0
CLASSIFICATION_TYPE = U
NORAD_CAT_ID   = 67713
ELEMENT_SET_NO = 999
REV_AT_EPOCH   = 487
BSTAR          = .14296E-2
MEAN_MOTION_DOT = .282475E-2
MEAN_MOTION_DDOT = 0

CCSDS_OMM_VERS = 2.0
CREATION_DATE  = 
ORIGINATOR     = 

OBJECT_NAME    = STARLINK-36702
OBJECT_ID      = 2026-025X
CENTER_NAME    = EARTH
REF_FRAME      = TEME
TIME_SYSTEM    = UTC
MEAN_ELEMENT_THEORY = SGP/SGP4

EPOCH          = 2026-03-02T20:51:28.458432
MEAN_MOTION    = 15.80889932
ECCENTRICITY   = .0000888
INCLINATION    = 97.2871
RA_OF_ASC_NODE = 173.2171
ARG_OF_PERICENTER = 106.8617
MEAN_ANOMALY   = 253.2749

EPHEMERIS_TYPE = 0
CLASSIFICATION_TYPE = U
NORAD_CAT_ID   = 67714
ELEMENT_SET_NO = 999
REV_AT_EPOCH   = 487
BSTAR          = .13104E-2
MEAN_MOTION_DOT = .259352E-2
MEAN_MOTION_DDOT = 0

CCSDS_OMM_VERS = 2.0
CREATION_DATE  = 
ORIGINATOR     = 

OBJECT_NAME    = STARLINK-36718
OBJECT_ID      = 2026-025Y
CENTER_NAME    = EARTH
REF_FRAME      = TEME
TIME_SYSTEM    = UTC
MEAN_ELEMENT_THEORY = SGP/SGP4

EPOCH          = 2026-03-02T20:42:35.647776
MEAN_MOTION    = 15.80835920
ECCENTRICITY   = .0001009
INCLINATION    = 97.2872
RA_OF_ASC_NODE = 173.2259
ARG_OF_PERICENTER = 81.0370
MEAN_ANOMALY   = 279.1012

EPHEMERIS_TYPE = 0
CLASSIFICATION_TYPE = U
NORAD_CAT_ID   = 67715
ELEMENT_SET_NO = 999
REV_AT_EPOCH   = 487
BSTAR          = .23014E-2
MEAN_MOTION_DOT = .465502E-2
MEAN_MOTION_DDOT = 0

CCSDS_OMM_VERS = 2.0
CREATION_DATE  = 
ORIGINATOR     = 

OBJECT_NAME    = STARLINK-36715
OBJECT_ID      = 2026-025Z
CENTER_NAME    = EARTH
REF_FRAME      = TEME
TIME_SYSTEM    = UTC
MEAN_ELEMENT_THEORY = SGP/SGP4

EPOCH          = 2026-03-02T20:45:33.867648
MEAN_MOTION    = 15.80856259
ECCENTRICITY   = .0000914
INCLINATION    = 97.2872
RA_OF_ASC_NODE = 173.2230
ARG_OF_PERICENTER = 92.3434
MEAN_ANOMALY   = 267.7939

EPHEMERIS_TYPE = 0
CLASSIFICATION_TYPE = U
NORAD_CAT_ID   = 67716
ELEMENT_SET_NO = 999
REV_AT_EPOCH   = 487
BSTAR          = .17353E-2
MEAN_MOTION_DOT = .34645E-2
MEAN_MOTION_DDOT = 0

CCSDS_OMM_VERS = 2.0
CREATION_DATE  = 
ORIGINATOR     = 

OBJECT_NAME    = STARLINK-36385
OBJECT_ID      = 2026-025AA
CENTER_NAME    = EARTH
REF_FRAME      = TEME
TIME_SYSTEM    = UTC
MEAN_ELEMENT_THEORY = SGP/SGP4

EPOCH          = 2026-03-02T13:18:47.420064
MEAN_MOTION    = 15.80910300
ECCENTRICITY   = .0002486
INCLINATION    = 97.2870
RA_OF_ASC_NODE = 172.8801
ARG_OF_PERICENTER = 106.3663
MEAN_ANOMALY   = 253.7879

EPHEMERIS_TYPE = 0
CLASSIFICATION_TYPE = U
NORAD_CAT_ID   = 67717
ELEMENT_SET_NO = 999
REV_AT_EPOCH   = 482
BSTAR          = .11679E-2
MEAN_MOTION_DOT = .230579E-2
MEAN_MOTION_DDOT = 0

CCSDS_OMM_VERS = 2.0
CREATION_DATE  = 
ORIGINATOR     = 

OBJECT_NAME    = CZ-2F DEB
OBJECT_ID      = 2026-024E
CENTER_NAME    = EARTH
REF_FRAME      = TEME
TIME_SYSTEM    = UTC
MEAN_ELEMENT_THEORY = SGP/SGP4

EPOCH          = 2026-02-27T12:10:33.167712
MEAN_MOTION    = 15.20915897
ECCENTRICITY   = .02465096
INCLINATION    = 50.3169
RA_OF_ASC_NODE = 68.5830
ARG_OF_PERICENTER = 240.0171
MEAN_ANOMALY   = 117.6115

EPHEMERIS_TYPE = 0
CLASSIFICATION_TYPE = U
NORAD_CAT_ID   = 67718
ELEMENT_SET_NO = 999
REV_AT_EPOCH   = 308
BSTAR          = .35886422E-2
MEAN_MOTION_DOT = .191604E-2
MEAN_MOTION_DDOT = 0

CCSDS_OMM_VERS = 2.0
CREATION_DATE  = 
ORIGINATOR     = 

OBJECT_NAME    = CZ-2F DEB
OBJECT_ID      = 2026-024F
CENTER_NAME    = EARTH
REF_FRAME      = TEME
TIME_SYSTEM    = UTC
MEAN_ELEMENT_THEORY = SGP/SGP4

EPOCH          = 2026-03-03T03:56:37.871808
MEAN_MOTION    = 15.01530846
ECCENTRICITY   = .0318223
INCLINATION    = 49.7919
RA_OF_ASC_NODE = 53.3018
ARG_OF_PERICENTER = 245.3163
MEAN_ANOMALY   = 111.4339

EPHEMERIS_TYPE = 0
CLASSIFICATION_TYPE = U
NORAD_CAT_ID   = 67719
ELEMENT_SET_NO = 999
REV_AT_EPOCH   = 326
BSTAR          = .38809E-2
MEAN_MOTION_DOT = .159571E-2
MEAN_MOTION_DDOT = 0

CCSDS_OMM_VERS = 2.0
CREATION_DATE  = 
ORIGINATOR     = 

OBJECT_NAME    = CZ-2F DEB
OBJECT_ID      = 2026-024G
CENTER_NAME    = EARTH
REF_FRAME      = TEME
TIME_SYSTEM    = UTC
MEAN_ELEMENT_THEORY = SGP/SGP4

EPOCH          = 2026-03-03T03:22:04.503360
MEAN_MOTION    = 14.98844134
ECCENTRICITY   = .032903
INCLINATION    = 49.8312
RA_OF_ASC_NODE = 53.9297
ARG_OF_PERICENTER = 241.4260
MEAN_ANOMALY   = 115.3206

EPHEMERIS_TYPE = 0
CLASSIFICATION_TYPE = U
NORAD_CAT_ID   = 67720
ELEMENT_SET_NO = 999
REV_AT_EPOCH   = 357
BSTAR          = .37028E-2
MEAN_MOTION_DOT = .14806E-2
MEAN_MOTION_DDOT = 0

