STARLINK-36698          
1 67709U 26025S   26061.74903585  .00641272  00000+0  30793-2 0  9995
2 67709  97.2860 173.0761 0002673  59.0223 301.1308 15.81027112  4858
STARLINK-36344          
1 67710U 26025T   26062.16668981  .00111539  00000+0  74064-3 0  9990
2 67710  97.2848 173.4994 0001584  76.2250  88.4903 15.75136744  4962
STARLINK-36687          
1 67711U 26025U   26061.75134404  .00610245  00000+0  29426-2 0  9992
2 67711  97.2859 173.0728 0002853  51.8254 308.3271 15.81015233  4866
STARLINK-36705          
1 67712U 26025V   26061.82812785  .00173677  00000+0  11391-2 0  9991
2 67712  97.2865 173.1191 0001432  96.8618 263.2810 15.75243086  4864
STARLINK-36708          
1 67713U 26025W   26061.86710938  .00282475  00000+0  14296-2 0  9997
2 67713  97.2873 173.2198 0001029 134.9353 225.1999 15.80794058  4876
STARLINK-36702          
1 67714U 26025X   26061.86907938  .00259352  00000+0  13104-2 0  9991
2 67714  97.2871 173.2171 0000888 106.8617 253.2749 15.80889932  4870
STARLINK-36718          
1 67715U 26025Y   26061.86291259  .00465502  00000+0  23014-2 0  9991
2 67715  97.2872 173.2259 0001009  81.0370 279.1012 15.80835920  4873
STARLINK-36715          
1 67716U 26025Z   26061.86497532  .00346450  00000+0  17353-2 0  9993
2 67716  97.2872 173.2230 0000914  92.3434 267.7939 15.80856259  4872
STARLINK-36385          
1 67717U 26025AA  26061.55471551  .00230579  00000+0  11679-2 0  9992
2 67717  97.2870 172.8801 0002486 106.3663 253.7879 15.80910300  4827
CZ-2F DEB               
1 67718U 26024E   26058.50732833  .00191604  00000+0  35886-2 0  9997
2 67718  50.3169  68.5830 0246509 240.0171 117.6115 15.20915897  3086
CZ-2F DEB               
1 67719U 26024F   26062.16432722  .00159571  00000+0  38809-2 0  9994
2 67719  49.7919  53.3018 0318223 245.3163 111.4339 15.01530846  3260
CZ-2F DEB               
1 67720U 26024G   26062.14032990  .00148060  00000+0  37028-2 0  9990
2 67720  49.8312  53.9297 0329030 241.4260 115.3206 14.98844134  3571
